$$SOE
2460721.500000000, A.D. 2025-Feb-15 00:00:00.0000, -5.478436070353191E+08, -8.337754278578131E+07, 1.551650527245895E+07,
2460728.500000000, A.D. 2025-Feb-22 00:00:00.0000, -5.464063679030991E+08, -9.155885264102845E+07, 1.668949344821562E+07,
2460735.500000000, A.D. 2025-Mar-01 00:00:00.0000, -5.448133410000347E+08, -9.971411807637325E+07, 1.785772335751375E+07,
2460742.500000000, A.D. 2025-Mar-08 00:00:00.0000, -5.430648727367338E+08, -1.078409945070206E+08, 1.902085816411120E+07,
2460749.500000000, A.D. 2025-Mar-15 00:00:00.0000, -5.411613273082006E+08, -1.159371354183384E+08, 2.017856112569793E+07,
2460756.500000000, A.D. 2025-Mar-22 00:00:00.0000, -5.391030891163945E+08, -1.240001914470768E+08, 2.133049576719002E+07,
2460763.500000000, A.D. 2025-Mar-29 00:00:00.0000, -5.368905638504208E+08, -1.320278117205268E+08, 2.247632574608020E+07,
2460770.500000000, A.D. 2025-Apr-05 00:00:00.0000, -5.345241778981795E+08, -1.400176443142933E+08, 2.361571463628288E+07,
2460777.500000000, A.D. 2025-Apr-12 00:00:00.0000, -5.320043780135922E+08, -1.479673357245754E+08, 2.474832581527804E+07,
2460784.500000000, A.D. 2025-Apr-19 00:00:00.0000, -5.293316314257135E+08, -1.558745302372690E+08, 2.587382239929189E+07,
2460791.500000000, A.D. 2025-Apr-26 00:00:00.0000, -5.265064261185313E+08, -1.637368693980816E+08, 2.699186718468061E+07,
2460798.500000000, A.D. 2025-May-03 00:00:00.0000, -5.235292711690196E+08, -1.715519915652374E+08, 2.810212258647217E+07,
2460805.500000000, A.D. 2025-May-10 00:00:00.0000, -5.204006971162764E+08, -1.793175315363762E+08, 2.920425057207627E+07,
2460812.500000000, A.D. 2025-May-17 00:00:00.0000, -5.171212563262696E+08, -1.870311202906052E+08, 3.029791258343992E+07,
2460819.500000000, A.D. 2025-May-24 00:00:00.0000, -5.136915231792059E+08, -1.946903848999162E+08, 3.138276942728860E+07,
2460826.500000000, A.D. 2025-May-31 00:00:00.0000, -5.101120936623152E+08, -2.022929482986920E+08, 3.245848112061182E+07,
2460833.500000000, A.D. 2025-Jun-07 00:00:00.0000, -5.063835847691258E+08, -2.098364277062872E+08, 3.352470682668098E+07,
2460840.500000000, A.D. 2025-Jun-14 00:00:00.0000, -5.025066360697699E+08, -2.173184323697443E+08, 3.458110504400645E+07,
2460847.500000000, A.D. 2025-Jun-21 00:00:00.0000, -4.984819122362964E+08, -2.247365638987421E+08, 3.562733366937047E+07,
2460854.500000000, A.D. 2025-Jun-28 00:00:00.0000, -4.943101033959762E+08, -2.320884174283626E+08, 3.666304979243198E+07,
2460861.500000000, A.D. 2025-Jul-05 00:00:00.0000, -4.899919248295584E+08, -2.393715814529240E+08, 3.768790953741954E+07,
2460868.500000000, A.D. 2025-Jul-12 00:00:00.0000, -4.855281172052277E+08, -2.465836371364087E+08, 3.870156799541224E+07,
2460875.500000000, A.D. 2025-Jul-19 00:00:00.0000, -4.809194471589144E+08, -2.537221576753531E+08, 3.970367918291117E+07,
2460882.500000000, A.D. 2025-Jul-26 00:00:00.0000, -4.761667080117970E+08, -2.607847077716544E+08, 4.069389600299665E+07,
2460889.500000000, A.D. 2025-Aug-02 00:00:00.0000, -4.712707205605252E+08, -2.677688431943364E+08, 4.167187020508785E+07,
2460896.500000000, A.D. 2025-Aug-09 00:00:00.0000, -4.662323339175606E+08, -2.746721104454349E+08, 4.263725234024795E+07,
2460903.500000000, A.D. 2025-Aug-16 00:00:00.0000, -4.610524263254197E+08, -2.814920465937546E+08, 4.358969170012418E+07,
2460910.500000000, A.D. 2025-Aug-23 00:00:00.0000, -4.557319056529122E+08, -2.882261792605923E+08, 4.452883621438125E+07,
2460917.500000000, A.D. 2025-Aug-30 00:00:00.0000, -4.502717092450887E+08, -2.948720260439935E+08, 4.545433233518006E+07,
2460924.500000000, A.D. 2025-Sep-06 00:00:00.0000, -4.446728045454291E+08, -3.014270923819507E+08, 4.636582512086634E+07,
2460931.500000000, A.D. 2025-Sep-13 00:00:00.0000, -4.389361921614590E+08, -3.078888703386691E+08, 4.726295846953920E+07,
2460938.500000000, A.D. 2025-Sep-20 00:00:00.0000, -4.330629081018935E+08, -3.142548399601051E+08, 4.814537506837182E+07,
2460945.500000000, A.D. 2025-Sep-27 00:00:00.0000, -4.270540241283305E+08, -3.205224700883804E+08, 4.901271621643002E+07,
2460952.500000000, A.D. 2025-Oct-04 00:00:00.0000, -4.209106482389307E+08, -3.266892180964968E+08, 4.986462175042014E+07,
2460959.500000000, A.D. 2025-Oct-11 00:00:00.0000, -4.146339256580683E+08, -3.327525294874243E+08, 5.070073003081262E+07,
2460966.500000000, A.D. 2025-Oct-18 00:00:00.0000, -4.082250400489048E+08, -3.387098376336219E+08, 5.152067794010647E+07,
2460973.500000000, A.D. 2025-Oct-25 00:00:00.0000, -4.016852148104479E+08, -3.445585636478544E+08, 5.232410088158563E+07,
2460980.500000000, A.D. 2025-Nov-01 00:00:00.0000, -3.950157144210330E+08, -3.502961163715746E+08, 5.311063277648227E+07,
2460987.500000000, A.D. 2025-Nov-08 00:00:00.0000, -3.882178457950957E+08, -3.559198925138601E+08, 5.387990605405527E+07,
2460994.500000000, A.D. 2025-Nov-15 00:00:00.0000, -3.812929595067417E+08, -3.614272770008847E+08, 5.463155161644034E+07,
2461001.500000000, A.D. 2025-Nov-22 00:00:00.0000, -3.742424504786466E+08, -3.668156433170396E+08, 5.536519875948244E+07,
2461008.500000000, A.D. 2025-Nov-29 00:00:00.0000, -3.670677582902536E+08, -3.720823527035937E+08, 5.608047515641111E+07,
2461015.500000000, A.D. 2025-Dec-06 00:00:00.0000, -3.597703693826033E+08, -3.772247523518017E+08, 5.677700710202499E+07,
2461022.500000000, A.D. 2025-Dec-13 00:00:00.0000, -3.523518207256925E+08, -3.822401759628583E+08, 5.745441970208454E+07,
2461029.500000000, A.D. 2025-Dec-20 00:00:00.0000, -3.448137014555771E+08, -3.871259456548661E+08, 5.811233677136587E+07,
2461036.500000000, A.D. 2025-Dec-27 00:00:00.0000, -3.371576535559651E+08, -3.918793726287588E+08, 5.875038075110245E+07,
2461043.500000000, A.D. 2026-Jan-03 00:00:00.0000, -3.293853730444216E+08, -3.964977572116503E+08, 5.936817272987507E+07,
2461050.500000000, A.D. 2026-Jan-10 00:00:00.0000, -3.214986115543397E+08, -4.009783889593740E+08, 5.996533250297846E+07,
2461057.500000000, A.D. 2026-Jan-17 00:00:00.0000, -3.134991780810417E+08, -4.053185469126852E+08, 6.054147864208670E+07,
2461064.500000000, A.D. 2026-Jan-24 00:00:00.0000, -3.053889408149450E+08, -4.095154999873982E+08, 6.109622857063468E+07,
2461071.500000000, A.D. 2026-Jan-31 00:00:00.0000, -2.971698290390705E+08, -4.135665075087808E+08, 6.162919864290604E+07,
2461078.500000000, A.D. 2026-Feb-07 00:00:00.0000, -2.888438350298204E+08, -4.174688199505047E+08, 6.214000421724823E+07,
2461085.500000000, A.D. 2026-Feb-14 00:00:00.0000, -2.804130157081300E+08, -4.212196798966182E+08, 6.262825969968866E+07,
2461092.500000000, A.D. 2026-Feb-21 00:00:00.0000, -2.718794936533768E+08, -4.248163226529654E+08, 6.309357857030120E+07,
2461099.500000000, A.D. 2026-Feb-28 00:00:00.0000, -2.632454585644933E+08, -4.282559753581924E+08, 6.353557358676912E+07,
2461106.500000000, A.D. 2026-Mar-07 00:00:00.0000, -2.545131712258321E+08, -4.315358565484536E+08, 6.395385719518647E+07,
2461113.500000000, A.D. 2026-Mar-14 00:00:00.0000, -2.456849672010365E+08, -4.346531785140817E+08, 6.434804170364483E+07,
2461120.500000000, A.D. 2026-Mar-21 00:00:00.0000, -2.367632584716370E+08, -4.376051495565143E+08, 6.471773929300894E+07,
2461127.500000000, A.D. 2026-Mar-28 00:00:00.0000, -2.277505350292248E+08, -4.403889751225684E+08, 6.506256213434273E+07,
2461134.500000000, A.D. 2026-Apr-04 00:00:00.0000, -2.186493670236875E+08, -4.430018587872248E+08, 6.538212259042913E+07,
2461141.500000000, A.D. 2026-Apr-11 00:00:00.0000, -2.094624071917264E+08, -4.454410034507251E+08, 6.567603344780040E+07,
2461148.500000000, A.D. 2026-Apr-18 00:00:00.0000, -2.001923934039665E+08, -4.477036127631423E+08, 6.594390816514613E+07,
2461155.500000000, A.D. 2026-Apr-25 00:00:00.0000, -1.908421512820985E+08, -4.497868927688545E+08, 6.618536113627405E+07,
2461162.500000000, A.D. 2026-May-02 00:00:00.0000, -1.814145968524514E+08, -4.516880538080715E+08, 6.640000796370493E+07,
2461169.500000000, A.D. 2026-May-09 00:00:00.0000, -1.719127391082352E+08, -4.534043127492747E+08, 6.658746572741477E+07,
2461176.500000000, A.D. 2026-May-16 00:00:00.0000, -1.623396820989521E+08, -4.549328954218597E+08, 6.674735322666496E+07,
2461183.500000000, A.D. 2026-May-23 00:00:00.0000, -1.526986264911441E+08, -4.562710382341086E+08, 6.687929127489763E+07,
2461190.500000000, A.D. 2026-May-30 00:00:00.0000, -1.429928726741319E+08, -4.574159886640069E+08, 6.698290326535881E+07,
2461197.500000000, A.D. 2026-Jun-06 00:00:00.0000, -1.332258257219927E+08, -4.583650079037296E+08, 6.705781576971249E+07,
2461204.500000000, A.D. 2026-Jun-13 00:00:00.0000, -1.234009985390782E+08, -4.591153754675418E+08, 6.710365885057107E+07,
2461211.500000000, A.D. 2026-Jun-20 00:00:00.0000, -1.135220136832607E+08, -4.596643928463616E+08, 6.712006637417115E+07,
2461218.500000000, A.D. 2026-Jun-27 00:00:00.0000, -1.035926055577217E+08, -4.600093865578995E+08, 6.710667645227641E+07,
2461225.500000000, A.D. 2026-Jul-04 00:00:00.0000, -9.361662296290097E+07, -4.601477113763751E+08, 6.706313195104058E+07,
2461232.500000000, A.D. 2026-Jul-11 00:00:00.0000, -8.359803174537314E+07, -4.600767538830730E+08, 6.698908103385517E+07,
2461239.500000000, A.D. 2026-Jul-18 00:00:00.0000, -7.354091744085559E+07, -4.597939363215772E+08, 6.688417773293360E+07,
2461246.500000000, A.D. 2026-Jul-25 00:00:00.0000, -6.344948787615386E+07, -4.592967207646197E+08, 6.674808254885842E+07,
2461253.500000000, A.D. 2026-Aug-01 00:00:00.0000, -5.332807567060563E+07, -4.585826136499634E+08, 6.658046307100220E+07,
2461260.500000000, A.D. 2026-Aug-08 00:00:00.0000, -4.318114040987120E+07, -4.576491707295381E+08, 6.638099459723420E+07,
2461267.500000000, A.D. 2026-Aug-15 00:00:00.0000, -3.301327006313019E+07, -4.564940019887635E+08, 6.614936075238687E+07,
2461274.500000000, A.D. 2026-Aug-22 00:00:00.0000, -2.282918238877023E+07, -4.551147753215070E+08, 6.588525427560960E+07,
2461281.500000000, A.D. 2026-Aug-29 00:00:00.0000, -1.263372859951253E+07, -4.535092203399845E+08, 6.558837807483186E+07,
$$EOE